LEMUR-2-DEMBITZ         
1 42842U 17042T   26068.47492167  .00020231  00000+0  76561-3 0  9991
2 42842  97.3807 250.9241 0006961  17.1421 343.0051 15.26947128473114
STARLINK-31514          
1 59187U 24045K   26068.44935051 -.00001613  00000+0 -49068-4 0  9991
2 59187  43.0080  93.9914 0002745 302.9517  57.1071 15.27583166113120
